NORAD_CAT_ID,OBJECT_NAME,OBJECT_TYPE,EPOCH,MEAN_MOTION,ECCENTRICITY,INCLINATION,RA_OF_ASC_NODE,ARG_OF_PERICENTER,MEAN_ANOMALY,BSTAR,MEAN_MOTION_DOT,MEAN_MOTION_DDOT,TLE_LINE0,TLE_LINE1,TLE_LINE2,SEMIMAJOR_AXIS,PERIOD,APOGEE,PERIGEE,DECAYED
52273.0,STARLINK-3782,PAYLOAD,2022-05-05 22:00:00,15.73152564,0.0001520999999999,53.2144,304.3938,47.9957,239.0529,0.00075184,0.00106021,0.0,0 STARLINK-3782,1 52273U 22041N   22125.91667824  .00106021  00000-0  75184-3 0  9991,2 52273  53.2144 304.3938 0001521  47.9957 239.0529 15.73152564  2898,6728.03,91.536,350.9190000000001,348.872,0.0
52273.0,STARLINK-3782,PAYLOAD,2022-05-06 06:00:00,15.73209098,0.000134,53.2143,302.7422,53.5362,322.4245,0.00046709,0.00065471,0.0,0 STARLINK-3782,1 52273U 22041N   22126.25001157  .00065471  00000-0  46709-3 0  9994,2 52273  53.2143 302.7422 0001340  53.5362 322.4245 15.73209098  3527,6727.869000000002,91.533,350.636,348.833,0.0
52273.0,STARLINK-3782,PAYLOAD,2022-05-06 14:00:01,15.73290415,0.0001469,53.2146,301.0927,55.9313,48.9727,-0.0009426,-0.00131372,0.0,0 STARLINK-3782,1 52273U 22041N   22126.58334491 -.00131372  00000-0 -94260-3 0  9991,2 52273  53.2146 301.0927 0001469  55.9313  48.9727 15.73290415  3579,6727.637,91.528,350.491,348.514,0.0
52273.0,STARLINK-3782,PAYLOAD,2022-05-06 20:00:01,15.73197414,0.0001548,53.2146,299.8571,47.0032,34.6616,-0.00013958,-0.00020161,0.0,0 STARLINK-3782,1 52273U 22041N   22126.83334491 -.00020161  00000-0 -13958-3 0  9997,2 52273  53.2146 299.8571 0001548  47.0032  34.6616 15.73197414  3615,6727.903,91.533,350.809,348.726,0.0
52273.0,STARLINK-3782,PAYLOAD,2022-05-07 12:00:00,15.73240662,0.0001453,53.2145,296.5563,52.0063,207.4789,-0.00036644,-0.00051822,0.0,0 STARLINK-3782,1 52273U 22041N   22127.50001157 -.00051822  00000-0 -36644-3 0  9997,2 52273  53.2145 296.5563 0001453  52.0063 207.4789 15.73240662  3721,6727.779,91.531,350.622,348.667,0.0
52273.0,STARLINK-3782,PAYLOAD,2022-05-07 14:00:01,15.7323611,0.00015,53.2144,296.1445,49.3331,322.3935,-0.00041967,-0.00059197,0.0,0 STARLINK-3782,1 52273U 22041N   22127.58334491 -.00059197  00000-0 -41967-3 0  9992,2 52273  53.2144 296.1445 0001500  49.3331 322.3935 15.73236110  3166,6727.792,91.531,350.666,348.648,0.0
52273.0,STARLINK-3782,PAYLOAD,2022-05-07 22:00:00,15.73178342,0.0001609,53.2138,294.4965,40.2937,60.3953,0.00019779,0.00027203,0.0,0 STARLINK-3782,1 52273U 22041N   22127.91667824  .00027203  00000-0  19779-3 0  9995,2 52273  53.2138 294.4965 0001609  40.2937  60.3953 15.73178342  3216,6727.956999999999,91.534,350.904,348.73900000000015,0.0
52273.0,STARLINK-3782,PAYLOAD,2022-05-08 04:00:00,15.73213304,0.0001656,53.2172,293.2592,51.5064,25.6709,-9.39e-05,-0.00013785,0.0,0 STARLINK-3782,1 52273U 22041N   22128.16667824 -.00013785  00000-0 -93900-4 0  9994,2 52273  53.2172 293.2592 0001656  51.5064  25.6709 15.73213304  3823,6727.857,91.532,350.836,348.608,0.0
52273.0,STARLINK-3782,PAYLOAD,2022-05-08 12:00:00,15.73380052,0.000148,53.2156,291.6077,52.719,113.4976,-0.0032684,-0.00439558,0.0,0 STARLINK-3782,1 52273U 22041N   22128.50001157 -.00439558  00000-0 -32684-2 0  9993,2 52273  53.2156 291.6077 0001480  52.7190 113.4976 15.73380052  3875,6727.382,91.523,350.24300000000005,348.251,0.0
52273.0,STARLINK-3782,PAYLOAD,2022-05-08 14:00:01,15.73303692,0.0001488,53.2161,291.196,51.0067,227.4725,-0.0028788,-0.00388289,0.0,0 STARLINK-3782,1 52273U 22041N   22128.58334491 -.00388289  00000-0 -28788-2 0  9995,2 52273  53.2161 291.1960 0001488  51.0067 227.4725 15.73303692  3323,6727.6,91.527,350.466,348.463,0.0
52273.0,STARLINK-3782,PAYLOAD,2022-05-08 20:00:01,15.73268463,0.0001706,53.214,289.9603,37.8039,217.4233,-0.00014885,-0.0002152,0.0,0 STARLINK-3782,1 52273U 22041N   22128.83334491 -.00021520  00000-0 -14885-3 0  9999,2 52273  53.2140 289.9603 0001706  37.8039 217.4233 15.73268463  3939,6727.7,91.529,350.713,348.417,0.0
52273.0,STARLINK-3782,PAYLOAD,2022-05-08 22:00:00,15.73261927,0.0001720999999999,53.2137,289.5478,35.8464,331.6339,-9.0511e-05,-0.00013338,0.0,0 STARLINK-3782,1 52273U 22041N   22128.91667824 -.00013338  00000-0 -90511-4 0  9996,2 52273  53.2137 289.5478 0001721  35.8464 331.6339 15.73261927  3370,6727.719,91.53,350.741,348.426,0.0
52273.0,STARLINK-3782,PAYLOAD,2022-05-09 14:00:01,15.7320255,0.0001712,53.214,286.2472,40.8275,144.6656,-0.00025108,-0.00035714,0.0,0 STARLINK-3782,1 52273U 22041N   22129.58335648 -.00035714  00000-0 -25108-3 0  9997,2 52273  53.2140 286.2472 0001712  40.8275 144.6656 15.73202550  4044,6727.888000000001,91.533,350.905,348.601,0.0
52273.0,STARLINK-3782,PAYLOAD,2022-05-09 22:00:00,15.73210191,0.0001815,53.2134,284.5989,34.2519,240.1007,3.0726e-07,-5.78e-06,0.0,0 STARLINK-3782,1 52273U 22041N   22129.91667824 -.00000578  00000-0  30726-6 0  9992,2 52273  53.2134 284.5989 0001815  34.2519 240.1007 15.73210191  4102,6727.866,91.533,350.952,348.51,0.0
52273.0,STARLINK-3782,PAYLOAD,2022-05-10 06:00:00,15.73145453,0.0001573,53.2136,282.9471,37.4762,325.8141,0.00054256,0.00076039,0.0,0 STARLINK-3782,1 52273U 22041N   22130.25001157  .00076039  00000-0  54256-3 0  9997,2 52273  53.2136 282.9471 0001573  37.4762 325.8141 15.73145453  4151,6728.051,91.536,350.974,348.857,0.0
52273.0,STARLINK-3782,PAYLOAD,2022-05-10 14:00:01,15.73227649,0.0001715,53.2138,281.2985,36.5237,55.6791,-0.00056606,-0.00079415,0.0,0 STARLINK-3782,1 52273U 22041N   22130.58334491 -.00079415  00000-0 -56606-3 0  9997,2 52273  53.2138 281.2985 0001715  36.5237  55.6791 15.73227649  3640,6727.816,91.532,350.835,348.528,0.0
52273.0,STARLINK-3782,PAYLOAD,2022-05-10 18:00:00,15.73184159,0.0001845,53.2138,280.4748,34.4834,282.1781,-0.00037985,-0.00053559,0.0,0 STARLINK-3782,1 52273U 22041N   22130.75001157 -.00053559  00000-0 -37985-3 0  9996,2 52273  53.2138 280.4748 0001845  34.4834 282.1781 15.73184159  4232,6727.94,91.534,351.047,348.564,0.0
52273.0,STARLINK-3782,PAYLOAD,2022-05-11 22:00:00,15.73238973,0.0002067,53.2135,274.7008,29.5311,58.4205,-0.00019859,-0.00028447,0.0,0 STARLINK-3782,1 52273U 22041N   22131.91667824 -.00028447  00000-0 -19859-3 0  9992,2 52273  53.2135 274.7008 0002067  29.5311  58.4205 15.73238973  4415,6727.784000000002,91.531,351.04,348.2580000000001,0.0
52273.0,STARLINK-3782,PAYLOAD,2022-05-12 14:00:01,15.73263549,0.0002059,53.2151,271.4007,36.1708,229.7031,-0.00080072,-0.00111831,0.0,0 STARLINK-3782,1 52273U 22041N   22132.58334491 -.00111831  00000-0 -80072-3 0  9992,2 52273  53.2151 271.4007 0002059  36.1708 229.7031 15.73263549  1303,6727.714,91.529,350.964,348.194,0.0
52273.0,STARLINK-3782,PAYLOAD,2022-05-12 20:00:01,15.7320524,0.0002162,53.2153,270.1645,28.7219,213.9111,-5.41e-05,-8.209e-05,0.0,0 STARLINK-3782,1 52273U 22041N   22132.83334491 -.00008209  00000-0 -54100-4 0  9998,2 52273  53.2153 270.1645 0002162  28.7219 213.9111 15.73205240  4567,6727.88,91.533,351.2,348.291,0.0
52273.0,STARLINK-3782,PAYLOAD,2022-05-12 22:00:00,15.73202881,0.0002129,53.2151,269.7517,26.6395,328.2277,-4.0156e-05,-6.254e-05,0.0,0 STARLINK-3782,1 52273U 22041N   22132.91667824 -.00006254  00000-0 -40156-4 0  9990,2 52273  53.2151 269.7517 0002129  26.6395 328.2277 15.73202881  1302,6727.887,91.533,351.184,348.32,0.0
52273.0,STARLINK-3782,PAYLOAD,2022-05-13 06:00:00,15.73164465,0.0001944,53.2153,268.1001,29.4044,54.3565,0.00030705,0.00042627,0.0,0 STARLINK-3782,1 52273U 22041N   22133.25001157  .00042627  00000-0  30705-3 0  9999,2 52273  53.2153 268.1001 0001944  29.4044  54.3565 15.73164465  4621,6727.996,91.535,351.1690000000001,348.55400000000014,0.0
52273.0,STARLINK-3782,PAYLOAD,2022-05-13 14:00:01,15.73198121,0.0002136,53.2153,266.452,28.1725,144.5002,-0.0004928999999999,-0.00069232,0.0,0 STARLINK-3782,1 52273U 22041N   22133.58334491 -.00069232  00000-0 -49290-3 0  9997,2 52273  53.2153 266.4520 0002136  28.1725 144.5002 15.73198121  1300,6727.901,91.533,351.20300000000015,348.32800000000015,0.0
52273.0,STARLINK-3782,PAYLOAD,2022-05-13 22:00:00,15.73156776,0.0002166,53.2146,264.8027,21.0522,240.5252,-0.00059788,-0.00083557,0.0,0 STARLINK-3782,1 52273U 22041N   22133.91667824 -.00083557  00000-0 -59788-3 0  9992,2 52273  53.2146 264.8027 0002166  21.0522 240.5252 15.73156776  4730,6728.018,91.536,351.341,348.426,0.0
52273.0,STARLINK-3782,PAYLOAD,2022-05-14 06:00:00,15.73057855,0.0001966,53.2149,263.1515,23.2491,327.1603,0.0015829,0.00226238,0.0,0 STARLINK-3782,1 52273U 22041N   22134.25001157  .00226238  00000-0  15829-2 0  9991,2 52273  53.2149 263.1515 0001966  23.2491 327.1603 15.73057855  4788,6728.3,91.541,351.48800000000006,348.843,0.0
52273.0,STARLINK-3782,PAYLOAD,2022-05-14 14:00:01,15.73240865,0.0002198,53.2153,261.5038,23.4886,55.7996,0.00027581,0.00038334,0.0,0 STARLINK-3782,1 52273U 22041N   22134.58334491  .00038334  00000-0  27581-3 0  9994,2 52273  53.2153 261.5038 0002198  23.4886  55.7996 15.73240865  1302,6727.779,91.531,351.122,348.165,0.0
52273.0,STARLINK-3782,PAYLOAD,2022-05-14 22:00:00,15.73292723,0.0002317,53.2153,259.8543,19.4213,148.8596,-0.00033092,-0.00046996,0.0,0 STARLINK-3782,1 52273U 22041N   22134.91667824 -.00046996  00000-0 -33092-3 0  9999,2 52273  53.2153 259.8543 0002317  19.4213 148.8596 15.73292723  4881,6727.630999999999,91.528,351.055,347.93699999999984,0.0
52273.0,STARLINK-3782,PAYLOAD,2022-05-15 06:00:00,15.73207951,0.0002176,53.2174,258.2045,28.6406,228.3937,-3.768e-05,-5.908e-05,0.0,0 STARLINK-3782,1 52273U 22041N   22135.25001157 -.00005908  00000-0 -37680-4 0  9994,2 52273  53.2174 258.2045 0002176  28.6406 228.3937 15.73207951  4942,6727.873000000001,91.533,351.201,348.274,0.0
52273.0,STARLINK-3782,PAYLOAD,2022-05-15 14:00:01,15.73223466,0.0002376,53.2154,256.5549,18.7339,327.5628,-0.000104,-0.00015208,0.0,0 STARLINK-3782,1 52273U 22041N   22135.58335648 -.00015208  00000-0 -10400-3 0  9999,2 52273  53.2154 256.5549 0002376  18.7339 327.5628 15.73223466  4990,6727.828,91.532,351.292,348.095,0.0
